#aV2007  4  6  0  0   .00000000      96 DD+AD WGS84 FIT  NGA
## 1421 432000.00000000   900.00000000 54196  .0000000000000
+   30     1  2  3  4  5  6  7  8  9 10 11 12 13 14 16 17 18
+         19 20 21 22 23 24 25 26 27 28 29 30 31  0  0  0  0
+          0  0  0  0  0  0  0  0  0  0  0  0  0  0  0  0  0
+          0  0  0  0  0  0  0  0  0  0  0  0  0  0  0  0  0
+          0  0  0  0  0  0  0  0  0  0  0  0  0  0  0  0  0
++         0  0  0  0  0  0  0  0  0  0  0  0  0  0  0  0  0
++         0  0  0  0  0  0  0  0  0  0  0  0  0  0  0  0  0
++         0  0  0  0  0  0  0  0  0  0  0  0  0  0  0  0  0
++         0  0  0  0  0  0  0  0  0  0  0  0  0  0  0  0  0
++         0  0  0  0  0  0  0  0  0  0  0  0  0  0  0  0  0
%c cc cc ccc ccc cccc cccc cccc cccc ccccc ccccc ccccc ccccc
%c cc cc ccc ccc cccc cccc cccc cccc ccccc ccccc ccccc ccccc
%f  0.0000000  0.000000000  0.00000000000  0.000000000000000
%f  0.0000000  0.000000000  0.00000000000  0.000000000000000
%i    0    0    0    0      0      0      0      0         0
%i    0    0    0    0      0      0      0      0         0
/*      NGA, ST. LOUIS,MO.                                  
/*   EPHEMERIS COMPUTED FROM  3 DAYS OF DATA                
/* CCCCCCCCCCCCCCCCCCCCCCCCCCCCCCCCCCCCCCCCCCCCCCCCCCCCCCCCC
/* CCCCCCCCCCCCCCCCCCCCCCCCCCCCCCCCCCCCCCCCCCCCCCCCCCCCCCCCC
*  2007  4  6 10 30   .00000000                                                 
P  1  20298.452635  14521.322992   9381.558396    118.521410                    
V  1 -11358.785978  -2706.009422  29347.313332       .025388                    
P  2 -13901.936032 -18315.510284 -13747.019150     96.598692                    
V  2  -1230.119428 -17120.369112  24185.932768       .032029                    
P  3  23381.897133  10930.436005  -7167.080480     38.612149                    
V  3  -9330.998147   1296.799663 -28973.665411       .055950                    
P  4  -6313.335525 -25515.966342  -2095.504133      9.805036                    
V  4   3031.001401  -3227.216541  31515.069483       .007578                    
P  5 -21198.781688  13355.429269   8352.948980     37.450953                    
V  5   5139.757384 -10299.305373  28866.582728      -.053587                    
P  6 -17182.318398   8839.997235 -18057.980841    127.569993                    
V  6 -21860.148214  -8518.090605  16411.648011       .192137                    
P  7 -12654.664944  11757.130725 -19852.830445    356.122499                    
V  7 -24815.334849  -7998.251265  10820.020675      -.149287                    
P  8   1551.814919 -25088.219119  -7972.435278   -102.672185                    
V  8   3980.213829   9571.525775 -30195.260491      -.013609                    
P  9 -15183.012505   -226.445031  21229.231594     64.817379                    
V  9  -6341.044443 -27597.184529  -4479.787149       .016935                    
P 10 -14816.066162  -6565.454348 -21215.162821     99.885655                    
V 10  20036.776374 -17479.345576  -8312.646147       .005008                    
P 11  16438.706449  -3161.922780  20535.824286     12.458988                    
V 11   9123.604215  24994.304528  -3145.679975       .010821                    
P 12 -22283.214741   9662.780201  10797.382335    -43.981497                    
V 12   8526.677881 -10832.275266  27621.854339       .000862                    
P 13  13736.349277  -9304.785198 -20826.697885    160.400793                    
V 13  24260.818750   9768.202868  11737.297926       .036905                    
P 14   6312.187580  16311.863185  20091.841770     14.668864                    
V 14 -24022.120322  -7776.528031  13850.051850       .015957                    
P 16   9486.883149  11785.059878 -21741.105956    137.392431                    
V 16 -21177.351702  18025.089073    666.330465       .032772                    
P 17  -4221.866915 -16530.724992  20394.105758     72.649006                    
V 17  24756.637999   7494.196753  11079.876417      -.012881                    
P 18 -15162.315584  19962.118732   8397.576121   -252.113729                    
V 18 -10140.591083   4299.839086 -29313.368098       .005553                    
P 19  25290.513252   7369.461380   3923.422914     22.068277                    
V 19   3441.445440   4389.171180 -31107.541065       .037616                    
P 20  22188.943370 -10934.628220   9506.651809    -23.448914                    
V 20  -7203.132342  10295.531296  28388.266802      -.003188                    
P 21  -6887.254404  21073.549923 -14087.672517     74.889113                    
V 21  -6039.329439 -17594.386912 -23757.502416       .006930                    
P 22  -5367.083783  19805.128073  17003.289785    175.433038                    
V 22 -17868.080395  11818.670127 -19603.859114       .019626                    
P 23  22505.090366  -2603.370355 -14103.852894    158.456268                    
V 23  16184.362265   7314.178959  24426.720976       .021808                    
P 24 -13180.144889  10087.494073 -20589.822262     90.606360                    
V 24  -4692.197550 -26160.233944  -9424.938509       .029436                    
P 25  16169.784996   4519.471969 -20170.041210    251.725595                    
V 25   6584.780437  25708.210450  10991.468772      -.260833                    
P 26 -25318.584614  -8940.655900    787.651119   -126.958503                    
V 26   -943.058760  -1774.467110 -32037.741970      -.197410                    
P 27   5491.430889 -20465.176597 -15216.972242    103.456531                    
V 27   7526.743298  19296.027915 -22545.566546       .021564                    
P 28   8535.486560 -20524.358150  14601.529405      3.814083                    
V 28  15288.919363  -9964.607403 -23820.717769      -.006704                    
P 29 -24538.235546 -10216.690334  -2886.016828      1.328183                    
V 29   4192.264609   -298.247235 -31851.976202       .005091                    
P 30 -19372.620020  18065.338052    342.307647     30.220565                    
V 30  -1767.961556  -3018.929826  31487.129928       .010026                    
P 31   7534.723900  25193.921797  -3264.809260     18.726263                    
V 31  -1892.396784   4884.680626  31456.252037       .011755                    
EOF
